NORAD_CAT_ID,OBJECT_NAME,OBJECT_TYPE,EPOCH,MEAN_MOTION,ECCENTRICITY,INCLINATION,RA_OF_ASC_NODE,ARG_OF_PERICENTER,MEAN_ANOMALY,BSTAR,MEAN_MOTION_DOT,MEAN_MOTION_DDOT,TLE_LINE0,TLE_LINE1,TLE_LINE2,SEMIMAJOR_AXIS,PERIOD,APOGEE,PERIGEE,DECAYED
52478.0,STARLINK-3825,PAYLOAD,2022-09-16 13:04:25,15.08840184,0.0001423,53.2205,1.016,62.4175,297.6962,2.7009e-05,1.42e-06,0.0,0 STARLINK-3825,1 52478U 22049AD  22259.54474329  .00000142  00000-0  27009-4 0  9990,2 52478  53.2205   1.0160 0001423  62.4175 297.6962 15.08840184 21742,6917.88,95.438,540.729,538.76,0.0
52478.0,STARLINK-3825,PAYLOAD,2022-09-16 16:15:12,15.08837572,0.0001395999999999,53.221,0.4212,67.4023,292.7117,2.1413000000000007e-05,5.3e-07,0.0,0 STARLINK-3825,1 52478U 22049AD  22259.67722494  .00000053  00000-0  21413-4 0  9997,2 52478  53.2210   0.4212 0001396  67.4023 292.7117 15.08837572 21762,6917.888000000001,95.438,540.719,538.7869999999998,0.0
52478.0,STARLINK-3825,PAYLOAD,2022-09-17 12:55:13,15.08837903,0.0001395,53.2207,356.5545,65.8643,294.2495,-5.1994e-05,-1.115e-05,0.0,0 STARLINK-3825,1 52478U 22049AD  22260.53834824 -.00001115  00000-0 -51994-4 0  9994,2 52478  53.2207 356.5545 0001395  65.8643 294.2495 15.08837903 21899,6917.887,95.438,540.717,538.7869999999998,0.0
52478.0,STARLINK-3825,PAYLOAD,2022-09-18 00:02:54,15.08838644,0.0001441999999999,53.2213,354.4736,64.8707,295.2435,3.7412e-05,3.07e-06,0.0,0 STARLINK-3825,1 52478U 22049AD  22261.00202544  .00000307  00000-0  37412-4 0  9994,2 52478  53.2213 354.4736 0001442  64.8707 295.2435 15.08838644 20884,6917.885,95.438,540.747,538.752,0.0
52478.0,STARLINK-3825,PAYLOAD,2022-09-18 12:46:00,15.08832255,0.0001476999999999,53.2212,352.0953,66.929,293.1858,3.3973e-05,2.53e-06,0.0,0 STARLINK-3825,1 52478U 22049AD  22261.53195079  .00000253  00000-0  33973-4 0  9994,2 52478  53.2212 352.0953 0001477  66.9290 293.1858 15.08832255 22044,6917.904,95.438,540.7909999999998,538.747,0.0
52478.0,STARLINK-3825,PAYLOAD,2022-09-19 11:01:23,15.08847106,0.0001472,53.2208,347.9326,65.3722,294.7424,0.0001393,1.93e-05,0.0,0 STARLINK-3825,1 52478U 22049AD  22262.45929868  .00001930  00000-0  13930-3 0  9990,2 52478  53.2208 347.9326 0001472  65.3722 294.7424 15.08847106 21107,6917.859,95.437,540.742,538.705,0.0
52478.0,STARLINK-3825,PAYLOAD,2022-09-19 15:47:32,15.0884505,0.0001460999999999,53.2208,347.0415,61.9201,298.1939,0.0001403,1.946e-05,0.0,0 STARLINK-3825,1 52478U 22049AD  22262.65801950  .00001946  00000-0  14030-3 0  9992,2 52478  53.2208 347.0415 0001461  61.9201 298.1939 15.08845050 22217,6917.865,95.437,540.741,538.719,0.0
52478.0,STARLINK-3825,PAYLOAD,2022-09-20 04:30:38,15.08838408,0.0001704,53.2203,344.6637,56.312,303.8035,4.8639e-05,4.86e-06,0.0,0 STARLINK-3825,1 52478U 22049AD  22263.18794615  .00000486  00000-0  48639-4 0  9991,2 52478  53.2203 344.6637 0001704  56.3120 303.8035 15.08838408 21218,6917.885,95.438,540.929,538.571,0.0
52478.0,STARLINK-3825,PAYLOAD,2022-09-20 12:27:34,15.08836186,0.0001628,53.2213,343.1761,62.7737,297.3421,3.9332e-05,3.38e-06,0.0,0 STARLINK-3825,1 52478U 22049AD  22263.51914776  .00000338  00000-0  39332-4 0  9996,2 52478  53.2213 343.1761 0001628  62.7737 297.3421 15.08836186 22343,6917.892,95.438,540.883,538.631,0.0
52478.0,STARLINK-3825,PAYLOAD,2022-09-21 07:32:11,15.088467800000002,0.0001495,53.2217,339.6093,83.1969,276.9193,-6.7759e-05,-1.366e-05,0.0,0 STARLINK-3825,1 52478U 22049AD  22264.31402469 -.00001366  00000-0 -67759-4 0  9994,2 52478  53.2217 339.6093 0001495  83.1969 276.9193 15.08846780 21384,6917.86,95.437,540.759,538.69,0.0
52478.0,STARLINK-3825,PAYLOAD,2022-09-21 20:15:17,15.08830722,0.0001450999999999,53.2199,337.2299,64.0243,296.0899,-0.00012511,-2.278e-05,0.0,0 STARLINK-3825,1 52478U 22049AD  22264.84395586 -.00002278  00000-0 -12511-3 0  9991,2 52478  53.2199 337.2299 0001451  64.0243 296.0899 15.08830722 22544,6917.909000000002,95.438,540.778,538.77,0.0
52478.0,STARLINK-3825,PAYLOAD,2022-09-22 12:09:09,15.08831775,0.0001513,53.2198,334.2556,55.6642,304.4494,8.6281e-06,-1.51e-06,0.0,0 STARLINK-3825,1 52478U 22049AD  22265.50635581 -.00000151  00000-0  86281-5 0  9991,2 52478  53.2198 334.2556 0001513  55.6642 304.4494 15.08831775 22649,6917.906,95.438,540.817,538.724,0.0
52478.0,STARLINK-3825,PAYLOAD,2022-09-22 21:41:27,15.08837548,0.0001554,53.2199,332.4715,53.5831,306.5304,4.3668e-05,4.07e-06,0.0,0 STARLINK-3825,1 52478U 22049AD  22265.90379285  .00000407  00000-0  43668-4 0  9995,2 52478  53.2199 332.4715 0001554  53.5831 306.5304 15.08837548 21623,6917.888000000001,95.438,540.828,538.678,0.0
52478.0,STARLINK-3825,PAYLOAD,2022-09-23 11:59:57,15.08737403,0.0002378,53.2195,329.7961,67.1259,292.9984,0.0015382999999999,0.0002420999999999,0.0,0 STARLINK-3825,1 52478U 22049AD  22266.49996728  .00024210  00000-0  15383-2 0  9996,2 52478  53.2195 329.7961 0002378  67.1259 292.9984 15.08737403 21712,6918.194,95.444,541.7040000000002,538.414,0.0
52478.0,STARLINK-3825,PAYLOAD,2022-09-23 21:32:14,15.08834606,0.0001654,53.2199,328.0112,56.0469,304.068,0.00014595,2.035e-05,0.0,0 STARLINK-3825,1 52478U 22049AD  22266.89739223  .00002035  00000-0  14595-3 0  9991,2 52478  53.2199 328.0112 0001654  56.0469 304.0680 15.08834606 21779,6917.897,95.438,540.906,538.618,0.0
52478.0,STARLINK-3825,PAYLOAD,2022-09-24 10:15:19,15.08847112,0.0001565999999999,53.2187,325.6324,54.3154,305.7984,0.00010222,1.34e-05,0.0,0 STARLINK-3825,1 52478U 22049AD  22267.42730637  .00001340  00000-0  10222-3 0  9992,2 52478  53.2187 325.6324 0001566  54.3154 305.7984 15.08847112 22938,6917.859,95.437,540.807,538.64,0.0
52478.0,STARLINK-3825,PAYLOAD,2022-09-25 10:06:06,15.08850868,0.0002764,53.2197,321.1742,65.3966,294.7314,1.6247e-06,-2.63e-06,0.0,0 STARLINK-3825,1 52478U 22049AD  22268.42090741 -.00000263  00000-0  16247-5 0  9997,2 52478  53.2197 321.1742 0002764  65.3966 294.7314 15.08850868 23081,6917.847,95.437,541.624,537.8,0.0
52478.0,STARLINK-3825,PAYLOAD,2022-09-25 13:16:53,15.08839521,0.00018,53.2192,320.5776,55.8849,304.2314,-3.6887e-05,-8.75e-06,0.0,0 STARLINK-3825,1 52478U 22049AD  22268.55339190 -.00000875  00000-0 -36887-4 0  9996,2 52478  53.2192 320.5776 0001800  55.8849 304.2314 15.08839521 23103,6917.882,95.438,540.992,538.502,0.0
52478.0,STARLINK-3825,PAYLOAD,2022-09-26 08:21:30,15.08836124,0.0001776,53.2195,317.0086,57.1546,302.9617,-6.4657e-05,-1.317e-05,0.0,0 STARLINK-3825,1 52478U 22049AD  22269.34827510 -.00001317  00000-0 -64657-4 0  9990,2 52478  53.2195 317.0086 0001776  57.1546 302.9617 15.08836124 23222,6917.892,95.438,540.986,538.529,0.0
52478.0,STARLINK-3825,PAYLOAD,2022-09-27 09:47:41,15.08802689,0.000197,53.2202,312.2494,68.0064,292.1137,0.00050918,7.817e-05,0.0,0 STARLINK-3825,1 52478U 22049AD  22270.40811865  .00007817  00000-0  50918-3 0  9998,2 52478  53.2202 312.2494 0001970  68.0064 292.1137 15.08802689 22307,6917.994000000002,95.44,541.222,538.497,0.0
52478.0,STARLINK-3825,PAYLOAD,2022-09-28 11:13:51,15.0883655,0.0001682,53.2205,307.4944,75.4062,284.7117,7.97e-05,9.8e-06,0.0,0 STARLINK-3825,1 52478U 22049AD  22271.46795520  .00000980  00000-0  79700-4 0  9999,2 52478  53.2205 307.4944 0001682  75.4062 284.7117 15.08836550 22462,6917.891,95.438,540.92,538.592,0.0
52478.0,STARLINK-3825,PAYLOAD,2022-09-29 11:04:38,15.08836853,0.0001641999999999,53.219,303.0332,62.0175,298.0983,3.2061e-05,2.22e-06,0.0,0 STARLINK-3825,1 52478U 22049AD  22272.46156222  .00000222  00000-0  32061-4 0  9998,2 52478  53.2190 303.0332 0001642  62.0175 298.0983 15.08836853 23692,6917.89,95.438,540.891,538.619,0.0
52478.0,STARLINK-3825,PAYLOAD,2022-09-30 10:55:26,15.08837984,0.0001729,53.2191,298.5738,58.3534,301.7627,4.373100000000001e-05,4.08e-06,0.0,0 STARLINK-3825,1 52478U 22049AD  22273.45516302  .00000408  00000-0  43731-4 0  9999,2 52478  53.2191 298.5738 0001729  58.3534 301.7627 15.08837984 23844,6917.887,95.438,540.948,538.555,0.0
52478.0,STARLINK-3825,PAYLOAD,2022-09-30 18:52:21,15.08841383,0.0001769,53.219,297.0866,55.6857,304.4302,0.00010751,1.423e-05,0.0,0 STARLINK-3825,1 52478U 22049AD  22273.78635989  .00001423  00000-0  10751-3 0  9991,2 52478  53.2190 297.0866 0001769  55.6857 304.4302 15.08841383 23894,6917.876,95.437,540.965,538.5169999999998,0.0
52478.0,STARLINK-3825,PAYLOAD,2022-10-01 01:13:53,15.08844221,0.0001779,53.2191,295.8967,55.5823,304.5337,0.00013015,1.784e-05,0.0,0 STARLINK-3825,1 52478U 22049AD  22274.05131863  .00001784  00000-0  13015-3 0  9990,2 52478  53.2191 295.8967 0001779  55.5823 304.5337 15.08844221 22854,6917.8669999999975,95.437,540.9630000000002,538.502,0.0
52478.0,STARLINK-3825,PAYLOAD,2022-10-01 09:10:49,15.08852867,0.0001816,53.219,294.4102,56.5532,303.5633,0.0002258,3.309e-05,0.0,0 STARLINK-3825,1 52478U 22049AD  22274.38251297  .00003309  00000-0  22580-3 0  9992,2 52478  53.2190 294.4102 0001816  56.5532 303.5633 15.08852867 23987,6917.840999999999,95.437,540.962,538.45,0.0
52478.0,STARLINK-3825,PAYLOAD,2022-10-01 18:43:08,15.08844286,0.0001955,53.2186,292.6267,57.4182,302.6999,0.00011142,1.486e-05,0.0,0 STARLINK-3825,1 52478U 22049AD  22274.77995868  .00001486  00000-0  11142-3 0  9990,2 52478  53.2186 292.6267 0001955  57.4182 302.6999 15.08844286 24048,6917.8669999999975,95.437,541.085,538.38,0.0
52478.0,STARLINK-3825,PAYLOAD,2022-10-02 10:36:59,15.08838478,0.0001764999999999,53.2189,289.6526,59.9388,300.1779,-1.5663e-05,-5.37e-06,0.0,0 STARLINK-3825,1 52478U 22049AD  22275.44236100 -.00000537  00000-0 -15663-4 0  9993,2 52478  53.2189 289.6526 0001765  59.9388 300.1779 15.08838478 24145,6917.885,95.438,540.971,538.529,0.0
52478.0,STARLINK-3825,PAYLOAD,2022-10-02 18:33:55,15.08841739,0.0001827,53.2184,288.1656,55.0144,305.1020000000001,0.00011638,1.565e-05,0.0,0 STARLINK-3825,1 52478U 22049AD  22275.77356053  .00001565  00000-0  11638-3 0  9996,2 52478  53.2184 288.1656 0001827  55.0144 305.1020 15.08841739 24197,6917.875,95.437,541.004,538.476,0.0
